[{"OBJECT_NAME":"STARLINK-4462","OBJECT_ID":"2022-111J","EPOCH":"2026-03-09T20:55:02.022816","MEAN_MOTION":15.08834955,"ECCENTRICITY":0.00015287,"INCLINATION":53.2171,"RA_OF_ASC_NODE":273.3043,"ARG_OF_PERICENTER":100.3551,"MEAN_ANOMALY":259.7613,"EPHEMERIS_TYPE":0,"CLASSIFICATION_TYPE":"U","NORAD_CAT_ID":53781,"ELEMENT_SET_NO":999,"REV_AT_EPOCH":19372,"BSTAR":5.4372839e-5,"MEAN_MOTION_DOT":5.77e-6,"MEAN_MOTION_DDOT":0},{"OBJECT_NAME":"SEDNA-2","OBJECT_ID":"2025-009DQ","EPOCH":"2026-03-09T19:10:28.282944","MEAN_MOTION":15.10492622,"ECCENTRICITY":0.0010309,"INCLINATION":97.4615,"RA_OF_ASC_NODE":144.8075,"ARG_OF_PERICENTER":53.026,"MEAN_ANOMALY":307.1912,"EPHEMERIS_TYPE":0,"CLASSIFICATION_TYPE":"U","NORAD_CAT_ID":63153,"ELEMENT_SET_NO":999,"REV_AT_EPOCH":6311,"BSTAR":0.00049393403,"MEAN_MOTION_DOT":8.085e-5,"MEAN_MOTION_DDOT":0}]
